{
	"en": {
		"code": "en",
		"iso_name": "English",
		"native_name": "English",
		"writing_system": "LTR",
		"active": true
	},
	"es": {
		"code": "es",
		"iso_name": "Spanish",
		"native_name": "Español",
		"writing_system": "LTR",
		"active": true
	},
	"de": {
		"code": "de",
		"iso_name": "German",
		"native_name": "Deutsch",
		"writing_system": "LTR",
		"active": true
	},
	"hi": {
		"code": "hi",
		"iso_name": "Hindi",
		"native_name": "हिन्दी, हिंदी",
		"writing_system": "LTR",
		"active": true
	},
	"ar": {
		"code": "ar",
		"iso_name": "Arabic",
		"native_name": "العربية",
		"writing_system": "RTL",
		"active": true
	},
	"he": {
		"code": "he",
		"iso_name": "Hebrew",
		"native_name": "עברית",
		"writing_system": "RTL",
		"active": true
	},
	"hu": {
		"code": "hu",
		"iso_name": "Hungarian",
		"native_name": "magyar",
		"writing_system": "LTR",
		"active": true
	},
	"ga": {
		"code": "ga",
		"iso_name": "Irish",
		"native_name": "Gaeilge",
		"writing_system": "LTR",
		"active": true
	},
	"zh": {
		"code": "zh",
		"iso_name": "Chinese",
		"native_name": "中文",
		"writing_system": "LTR",
		"active": true
	},
	"id": {
		"code": "id",
		"iso_name": "Indonesian",
		"native_name": "Bahasa Indonesia",
		"writing_system": "LTR",
		"active": true
	},
	"ko": {
		"code": "ko",
		"iso_name": "Korean",
		"native_name": "한국어",
		"writing_system": "LTR",
		"active": true
	},
    "uk": {
      "code": "uk",
      "iso_name": "Ukrainian",
      "native_name": "Українська",
      "writing_system": "LTR",
      "active": true
    }
}
